NORAD_CAT_ID,OBJECT_NAME,OBJECT_TYPE,EPOCH,MEAN_MOTION,ECCENTRICITY,INCLINATION,RA_OF_ASC_NODE,ARG_OF_PERICENTER,MEAN_ANOMALY,BSTAR,MEAN_MOTION_DOT,MEAN_MOTION_DDOT,TLE_LINE0,TLE_LINE1,TLE_LINE2,SEMIMAJOR_AXIS,PERIOD,APOGEE,PERIGEE,DECAYED
53153.0,STARLINK-4098,PAYLOAD,2022-09-06 12:00:00,15.50203906,0.0001401,53.2175,155.6744,72.2735,107.6833,-0.0076888,-0.0041901,0.0,0 STARLINK-4098,1 53153U 22083X   22249.50001157 -.00419010  00000-0 -76888-2 0  9996,2 53153  53.2175 155.6744 0001401  72.2735 107.6833 15.50203906  8654,6794.267,92.891,417.084,415.18,0.0
53153.0,STARLINK-4098,PAYLOAD,2022-09-06 14:00:01,15.50069373,0.0001474,53.2174,155.2755,69.2295,216.0549,-0.0049081,-0.00271356,0.0,0 STARLINK-4098,1 53153U 22083X   22249.58334491 -.00271356  00000-0 -49081-2 0  9998,2 53153  53.2174 155.2755 0001474  69.2295 216.0549 15.50069373  1300,6794.66,92.899,417.527,415.524,0.0
53153.0,STARLINK-4098,PAYLOAD,2022-09-06 20:00:01,15.49884872,0.0001277,53.2177,154.08100000000005,64.6116,176.4563,2.6721e-05,1.065e-05,0.0,0 STARLINK-4098,1 53153U 22083X   22249.83334491  .00001065  00000-0  26721-4 0  9990,2 53153  53.2177 154.0810 0001277  64.6116 176.4563 15.49884872  8707,6795.2,92.91,417.932,416.197,0.0
53153.0,STARLINK-4098,PAYLOAD,2022-09-06 22:00:00,15.49885747,0.0001327,53.2176,153.6833,61.8992,284.3965,-3.7405e-06,-6.64e-06,0.0,0 STARLINK-4098,1 53153U 22083X   22249.91667824 -.00000664  00000-0 -37405-5 0  9996,2 53153  53.2176 153.6833 0001327  61.8992 284.3965 15.49885747  1309,6795.196999999999,92.91,417.964,416.16,0.0
53153.0,STARLINK-4098,PAYLOAD,2022-09-07 04:00:00,15.49927105,0.00016,53.2149,152.496,69.031,233.0062,-0.00061017,-0.0003498,0.0,0 STARLINK-4098,1 53153U 22083X   22250.16667824 -.00034980  00000-0 -61017-3 0  9997,2 53153  53.2149 152.4960 0001600  69.0310 233.0062 15.49927105  8755,6795.076,92.908,418.028,415.854,0.0
53153.0,STARLINK-4098,PAYLOAD,2022-09-07 14:00:01,15.49870028,0.0001313,53.2147,150.5026,78.1018,30.1085,0.00070758,0.00039891,0.0,0 STARLINK-4098,1 53153U 22083X   22250.58334491  .00039891  00000-0  70758-3 0  9990,2 53153  53.2147 150.5026 0001313  78.1018  30.1085 15.49870028  1308,6795.243,92.911,418.0,416.216,0.0
53153.0,STARLINK-4098,PAYLOAD,2022-09-07 22:00:00,15.49899792,0.0001256,53.2149,148.9107,72.29899999999998,96.8272,-0.0015995,-0.0009023999999999,0.0,0 STARLINK-4098,1 53153U 22083X   22250.91667824 -.00090240  00000-0 -15995-2 0  9994,2 53153  53.2149 148.9107 0001256  72.2990  96.8272 15.49899792  1307,6795.156,92.909,417.874,416.167,0.0
53153.0,STARLINK-4098,PAYLOAD,2022-09-08 06:00:00,15.49877647,0.0001017,53.2145,147.3183,58.1387,171.9534,0.00032661,0.00018123,0.0,0 STARLINK-4098,1 53153U 22083X   22251.25001157  .00018123  00000-0  32661-3 0  9991,2 53153  53.2145 147.3183 0001017  58.1387 171.9534 15.49877647  8924,6795.221,92.911,417.777,416.395,0.0
53153.0,STARLINK-4098,PAYLOAD,2022-09-08 14:00:01,15.49860458,9.18e-05,53.2149,145.7233,72.609,218.3994,0.0010749,0.00060978,0.0,0 STARLINK-4098,1 53153U 22083X   22251.58334491  .00060978  00000-0  10749-2 0  9994,2 53153  53.2149 145.7233 0000918  72.6090 218.3994 15.49860458  1300,6795.271,92.912,417.76,416.512,0.0
53153.0,STARLINK-4098,PAYLOAD,2022-09-08 22:00:00,15.49937072,0.0001082999999999,53.2151,144.1317,66.0248,285.8901,-0.001663,-0.00093883,0.0,0 STARLINK-4098,1 53153U 22083X   22251.91667824 -.00093883  00000-0 -16630-2 0  9998,2 53153  53.2151 144.1317 0001083  66.0248 285.8901 15.49937072  1309,6795.047,92.907,417.648,416.176,0.0
53153.0,STARLINK-4098,PAYLOAD,2022-09-09 04:00:00,15.49854498,0.0001225,53.2152,142.9377,61.2199,246.4135,0.00028457,0.00015714,0.0,0 STARLINK-4098,1 53153U 22083X   22252.16667824  .00015714  00000-0  28457-3 0  9992,2 53153  53.2152 142.9377 0001225  61.2199 246.4135 15.49854498  9065,6795.288000000001,92.912,417.986,416.321,0.0
53153.0,STARLINK-4098,PAYLOAD,2022-09-09 14:00:01,15.49820069,0.0001205999999999,53.2154,140.9442,69.9645,43.7414,0.00092944,0.00052533,0.0,0 STARLINK-4098,1 53153U 22083X   22252.58334491  .00052533  00000-0  92944-3 0  9991,2 53153  53.2154 140.9442 0001206  69.9645  43.7414 15.49820069  9131,6795.389,92.914,418.073,416.434,0.0
53153.0,STARLINK-4098,PAYLOAD,2022-09-09 22:00:00,15.49860748,0.0001349,53.2158,139.3523,63.6072,110.9573,-0.0002247,-0.00013172,0.0,0 STARLINK-4098,1 53153U 22083X   22252.91667824 -.00013172  00000-0 -22470-3 0  9992,2 53153  53.2158 139.3523 0001349  63.6072 110.9573 15.49860748  1302,6795.27,92.912,418.052,416.218,0.0
53153.0,STARLINK-4098,PAYLOAD,2022-09-10 04:00:00,15.49835062,0.0001351,53.216,138.1567,57.0977,73.1316,0.0010822,0.00061343,0.0,0 STARLINK-4098,1 53153U 22083X   22253.16667824  .00061343  00000-0  10822-2 0  9998,2 53153  53.2160 138.1567 0001351  57.0977  73.1316 15.49835062  9229,6795.345,92.913,418.128,416.292,0.0
53153.0,STARLINK-4098,PAYLOAD,2022-09-10 14:00:01,15.49856096,0.0001246,53.2149,136.1652,69.2565,227.1071,0.0010494999999999,0.00059506,0.0,0 STARLINK-4098,1 53153U 22083X   22253.58334491  .00059506  00000-0  10495-2 0  9999,2 53153  53.2149 136.1652 0001246  69.2565 227.1071 15.49856096  1300,6795.284000000002,92.912,417.995,416.302,0.0
53153.0,STARLINK-4098,PAYLOAD,2022-09-10 22:00:00,15.49899591,0.0001385999999999,53.2148,134.5736,63.0907,294.177,-0.00022585,-0.00013255,0.0,0 STARLINK-4098,1 53153U 22083X   22253.91667824 -.00013255  00000-0 -22585-3 0  9992,2 53153  53.2148 134.5736 0001386  63.0907 294.1770 15.49899591  1308,6795.156999999997,92.909,417.963,416.08,0.0
53153.0,STARLINK-4098,PAYLOAD,2022-09-11 14:00:01,15.49895369,0.0001215,53.214,131.3858,72.9888,46.1475,0.0009773,0.0005543,0.0,0 STARLINK-4098,1 53153U 22083X   22254.58334491  .00055430  00000-0  97730-3 0  9990,2 53153  53.2140 131.3858 0001215  72.9888  46.1475 15.49895369  9447,6795.169,92.909,417.859,416.208,0.0
53153.0,STARLINK-4098,PAYLOAD,2022-09-11 22:00:00,15.49961611,0.0001226,53.2142,129.7945,63.7725,116.3094,-0.0015639,-0.00088454,0.0,0 STARLINK-4098,1 53153U 22083X   22254.91667824 -.00088454  00000-0 -15639-2 0  9997,2 53153  53.2142 129.7945 0001226  63.7725 116.3094 15.49961611  1305,6794.975,92.906,417.673,416.007,0.0
53153.0,STARLINK-4098,PAYLOAD,2022-09-12 04:00:00,15.49890474,0.0001139,53.2137,128.5996,54.9014,80.9093,-0.00012777,-7.697e-05,0.0,0 STARLINK-4098,1 53153U 22083X   22255.16667824 -.00007697  00000-0 -12777-3 0  9996,2 53153  53.2137 128.5996 0001139  54.9014  80.9093 15.49890474  9534,6795.183000000001,92.91,417.822,416.274,0.0
53153.0,STARLINK-4098,PAYLOAD,2022-09-12 14:00:01,15.50075738,8.36e-05,53.2155,126.6017,76.2675,225.6621,-0.010617,-0.00565204,0.0,0 STARLINK-4098,1 53153U 22083X   22255.58334491 -.00565204  00000-0 -10617-1 0  9995,2 53153  53.2155 126.6017 0000836  76.2675 225.6621 15.50075738  1302,6794.642,92.899,417.075,415.939,0.0
53153.0,STARLINK-4098,PAYLOAD,2022-09-12 20:00:01,15.49713118,0.0001072999999999,53.2165,125.4048,72.0968,185.6468,-0.0079009,-0.00422891,0.0,0 STARLINK-4098,1 53153U 22083X   22255.83335648 -.00422891  00000-0 -79009-2 0  9993,2 53153  53.2165 125.4048 0001073  72.0968 185.6468 15.49713118  9634,6795.7019999999975,92.92,418.296,416.837,0.0
53153.0,STARLINK-4098,PAYLOAD,2022-09-12 22:00:00,15.49650994,0.0001193,53.2168,125.0067,71.5491,291.3236,-0.0102709999999999,-0.00540347,0.0,0 STARLINK-4098,1 53153U 22083X   22255.91667824 -.00540347  00000-0 -10271-1 0  9998,2 53153  53.2168 125.0067 0001193  71.5491 291.3236 15.49650994  1308,6795.8830000000025,92.924,418.559,416.937,0.0
53153.0,STARLINK-4098,PAYLOAD,2022-09-13 06:00:00,15.49277148,0.000111,53.2173,123.4122,71.1515,352.1437,-0.020997,-0.01058904,0.0,0 STARLINK-4098,1 53153U 22083X   22256.25001157 -.01058904  00000-0 -20997-1 0  9997,2 53153  53.2173 123.4122 0001110  71.1515 352.1437 15.49277148  9707,6796.976,92.947,419.596,418.087,0.0
53153.0,STARLINK-4098,PAYLOAD,2022-09-13 14:00:01,15.48517472,0.0001238,53.2174,121.8183,78.2233,44.7919,-0.021567,-0.01058853,0.0,0 STARLINK-4098,1 53153U 22083X   22256.58334491 -.01058853  00000-0 -21567-1 0  9990,2 53153  53.2174 121.8183 0001238  78.2233  44.7919 15.48517472  1306,6799.199000000001,92.992,421.906,420.223,0.0
53153.0,STARLINK-4098,PAYLOAD,2022-09-13 22:00:00,15.47757194,0.0001345,53.2174,120.2297,76.4623,105.3587,-0.0221139999999999,-0.01057247,0.0,0 STARLINK-4098,1 53153U 22083X   22256.91667824 -.01057247  00000-0 -22114-1 0  9991,2 53153  53.2174 120.2297 0001345  76.4623 105.3587 15.47757194  1308,6801.426,93.038,424.205,422.376,0.0
53153.0,STARLINK-4098,PAYLOAD,2022-09-14 04:00:00,15.47188197,0.0001255,53.2172,119.0379,71.3381,63.9889,-0.022574,-0.01057865,0.0,0 STARLINK-4098,1 53153U 22083X   22257.16667824 -.01057865  00000-0 -22574-1 0  9995,2 53153  53.2172 119.0379 0001255  71.3381  63.9889 15.47188197  9840,6803.093000000003,93.072,425.812,424.104,0.0
53153.0,STARLINK-4098,PAYLOAD,2022-09-14 14:00:01,15.46224937,0.0001284,53.2167,117.0532,61.996,234.7057,-0.022835,-0.01036876,0.0,0 STARLINK-4098,1 53153U 22083X   22257.58334491 -.01036876  00000-0 -22835-1 0  9991,2 53153  53.2167 117.0532 0001284  61.9960 234.7057 15.46224937  1303,6805.918000000002,93.13,428.657,426.909,0.0
53153.0,STARLINK-4098,PAYLOAD,2022-09-14 20:00:01,15.45666686,0.0001465999999999,53.2175,115.8649,54.8857,193.9484,-0.023694,-0.01053651,0.0,0 STARLINK-4098,1 53153U 22083X   22257.83334491 -.01053651  00000-0 -23694-1 0  9993,2 53153  53.2175 115.8649 0001466  54.8857 193.9484 15.45666686  9943,6807.557,93.164,430.42,428.424,0.0
53153.0,STARLINK-4098,PAYLOAD,2022-09-14 22:00:00,15.45530526,0.0001235,53.217,115.4706,69.1419,283.5941,-0.025537,-0.01139385,0.0,0 STARLINK-4098,1 53153U 22083X   22257.91667824 -.01139385  00000-0 -25537-1 0  9998,2 53153  53.2170 115.4706 0001235  69.1419 283.5941 15.45530526  1304,6807.956999999999,93.172,430.662,428.981,0.0
